{"fetched_at":"2026-03-29T16:36:15Z","count":15609,"tles":[{"name":"STARLINK-33637","line1":"1 63470U 25070L   26087.86242974  .00017857  00000+0  65660-3 0  9992","line2":"2 63470  42.9982 151.9502 0001043 274.0891  85.9842 15.27593527 55909","category":"Starlink"}]}