{
  "norad_id": 63470,
  "name": "STARLINK-33637",
  "history": [
    {
      "epoch": "2026-03-28T20:41:53.929536Z",
      "apogee_km": 483.724209119443,
      "perigee_km": 482.29297414902794,
      "latitude_deg": 4.482489674542398e-05,
      "longitude_deg": 15.198755953709634,
      "height_km": 482.7337580843319,
      "semi_major_axis_km": 6861.145591634235,
      "eccentricity": 0.0001043,
      "inclination_deg": 42.9982,
      "raan_deg": 151.9502,
      "arg_perigee_deg": 274.0891,
      "mean_anomaly_deg": 85.9842,
      "mean_motion_rev_day": 15.27593527
    }
  ]
}